{"state": "CT", "postcode": "06457", "street": "Country Club Rd", "district": "", "unit": "", "location": {"type": "Point", "coordinates": [-72.7277847, 41.5692709]}, "region": "Middlesex", "number": "1111", "city": "Middletown"}
{"state": "CT", "postcode": "06037", "street": "Parish Dr", "district": "", "unit": "", "location": {"type": "Point", "coordinates": [-72.7738706, 41.6332836]}, "region": "Hartford", "number": "51", "city": "Berlin"}
{"state": "CT", "postcode": "06037", "street": "Stockings Brook Rd", "district": "", "unit": "", "location": {"type": "Point", "coordinates": [-72.8102478, 41.5992734]}, "region": "Hartford", "number": "90", "city": "Berlin"}
{"state": "CT", "postcode": "06037", "street": "Lamentation Dr", "district": "", "unit": "", "location": {"type": "Point", "coordinates": [-72.7450054, 41.5991937]}, "region": "Hartford", "number": "99", "city": "Berlin"}
{"state": "CT", "postcode": "06037", "street": "Lamentation Dr", "district": "", "unit": "", "location": {"type": "Point", "coordinates": [-72.7406975, 41.5992867]}, "region": "Hartford", "number": "207", "city": "Berlin"}
{"state": "CT", "postcode": "06037", "street": "Spruce Brook Rd", "district": "", "unit": "", "location": {"type": "Point", "coordinates": [-72.7482723, 41.5993596]}, "region": "Hartford", "number": "152", "city": "Berlin"}
{"state": "CT", "postcode": "06037", "street": "Kensington Rd", "district": "", "unit": "", "location": {"type": "Point", "coordinates": [-72.778901, 41.5977891]}, "region": "Hartford", "number": "1461", "city": "Berlin"}
{"state": "CT", "postcode": "06037", "street": "Stockings Brook Rd", "district": "", "unit": "", "location": {"type": "Point", "coordinates": [-72.8088667, 41.599351]}, "region": "Hartford", "number": "77", "city": "Berlin"}
{"state": "CT", "postcode": "06037", "street": "Spruce Brook Rd", "district": "", "unit": "", "location": {"type": "Point", "coordinates": [-72.7478548, 41.5993683]}, "region": "Hartford", "number": "164", "city": "Berlin"}
{"state": "CT", "postcode": "06037", "street": "Cross Creek Dr", "district": "", "unit": "", "location": {"type": "Point", "coordinates": [-72.7865292, 41.5992137]}, "region": "Hartford", "number": "66", "city": "Berlin"}
{"state": "CT", "postcode": "06037", "street": "Spruce Brook Rd", "district": "", "unit": "", "location": {"type": "Point", "coordinates": [-72.7475308, 41.5994419]}, "region": "Hartford", "number": "172", "city": "Berlin"}
{"state": "CT", "postcode": "06037", "street": "Chamberlain Hwy", "district": "", "unit": "", "location": {"type": "Point", "coordinates": [-72.7988155, 41.5995092]}, "region": "Hartford", "number": "1386", "city": "Berlin"}
{"state": "CT", "postcode": "06023", "street": "Magnolia Ln", "district": "", "unit": "", "location": {"type": "Point", "coordinates": [-72.7218487, 41.6126763]}, "region": "Hartford", "number": "26", "city": "Berlin"}
{"state": "CT", "postcode": "06037", "street": "Highview Ter", "district": "", "unit": "", "location": {"type": "Point", "coordinates": [-72.7407181, 41.6126887]}, "region": "Hartford", "number": "61", "city": "Berlin"}
{"state": "CT", "postcode": "06037", "street": "Chamberlain Hwy", "district": "", "unit": "", "location": {"type": "Point", "coordinates": [-72.7940009, 41.6128324]}, "region": "Hartford", "number": "878", "city": "Berlin"}
{"state": "CT", "postcode": "06037", "street": "Kensington Rd", "district": "", "unit": "", "location": {"type": "Point", "coordinates": [-72.7690298, 41.6128051]}, "region": "Hartford", "number": "782", "city": "Berlin"}
{"state": "CT", "postcode": "06023", "street": "Magnolia Ln", "district": "", "unit": "", "location": {"type": "Point", "coordinates": [-72.7215849, 41.6127178]}, "region": "Hartford", "number": "34", "city": "Berlin"}
{"state": "CT", "postcode": "06037", "street": "Cindy Ln", "district": "", "unit": "", "location": {"type": "Point", "coordinates": [-72.7513592, 41.612934]}, "region": "Hartford", "number": "109", "city": "Berlin"}
{"state": "CT", "postcode": "06037", "street": "Walden Ct", "district": "", "unit": "", "location": {"type": "Point", "coordinates": [-72.7412919, 41.6129133]}, "region": "Hartford", "number": "69", "city": "Berlin"}
{"state": "CT", "postcode": "06037", "street": "High Rd", "district": "", "unit": "", "location": {"type": "Point", "coordinates": [-72.7918984, 41.6129688]}, "region": "Hartford", "number": "1343", "city": "Berlin"}
{"state": "CT", "postcode": "06037", "street": "Lower Ln", "district": "", "unit": "", "location": {"type": "Point", "coordinates": [-72.7550852, 41.6068491]}, "region": "Hartford", "number": "822", "city": "Berlin"}
{"state": "CT", "postcode": "06037", "street": "Somerset Dr", "district": "", "unit": "", "location": {"type": "Point", "coordinates": [-72.7417391, 41.6065765]}, "region": "Hartford", "number": "243", "city": "Berlin"}
{"state": "CT", "postcode": "06037", "street": "Savage Hill Rd", "district": "", "unit": "", "location": {"type": "Point", "coordinates": [-72.7284301, 41.6070549]}, "region": "Hartford", "number": "333", "city": "Berlin"}
{"state": "CT", "postcode": "06037", "street": "Kramer Dr", "district": "", "unit": "", "location": {"type": "Point", "coordinates": [-72.7564222, 41.6070186]}, "region": "Hartford", "number": "47", "city": "Berlin"}
{"state": "CT", "postcode": "06037", "street": "Savage Hill Rd", "district": "", "unit": "", "location": {"type": "Point", "coordinates": [-72.7288349, 41.6060497]}, "region": "Hartford", "number": "369", "city": "Berlin"}
{"state": "CT", "postcode": "06037", "street": "Casner Dr", "district": "", "unit": "", "location": {"type": "Point", "coordinates": [-72.7603946, 41.6070241]}, "region": "Hartford", "number": "85", "city": "Berlin"}
{"state": "CT", "postcode": "06037", "street": "Worthington Rdg", "district": "", "unit": "", "location": {"type": "Point", "coordinates": [-72.7511137, 41.6070514]}, "region": "Hartford", "number": "1340", "city": "Berlin"}
{"state": "CT", "postcode": "06037", "street": "Kramer Dr", "district": "", "unit": "", "location": {"type": "Point", "coordinates": [-72.7560591, 41.6070651]}, "region": "Hartford", "number": "39", "city": "Berlin"}
{"state": "CT", "postcode": "06023", "street": "Main St", "district": "", "unit": "", "location": {"type": "Point", "coordinates": [-72.7184414, 41.6068432]}, "region": "Hartford", "number": "393", "city": "Berlin"}
{"state": "CT", "postcode": "06037", "street": "Kramer Dr", "district": "", "unit": "", "location": {"type": "Point", "coordinates": [-72.7556998, 41.6071113]}, "region": "Hartford", "number": "29", "city": "Berlin"}
{"state": "CT", "postcode": "06037", "street": "Brooke Meadow Rd", "district": "", "unit": "", "location": {"type": "Point", "coordinates": [-72.8043046, 41.6115631]}, "region": "Hartford", "number": "291", "city": "Berlin"}
{"state": "CT", "postcode": "06037", "street": "Clock Shop Dr", "district": "", "unit": "", "location": {"type": "Point", "coordinates": [-72.7335348, 41.6113911]}, "region": "Hartford", "number": "114", "city": "Berlin"}
{"state": "CT", "postcode": "06037", "street": "Reservoir Rd", "district": "", "unit": "", "location": {"type": "Point", "coordinates": [-72.8173389, 41.6116372]}, "region": "Hartford", "number": "737", "city": "Berlin"}
{"state": "CT", "postcode": "06037", "street": "Steepleview Dr", "district": "", "unit": "", "location": {"type": "Point", "coordinates": [-72.7714853, 41.6114398]}, "region": "Hartford", "number": "78", "city": "Berlin"}
{"state": "CT", "postcode": "06037", "street": "Norton Rd", "district": "", "unit": "", "location": {"type": "Point", "coordinates": [-72.7869626, 41.6115099]}, "region": "Hartford", "number": "186", "city": "Berlin"}
{"state": "CT", "postcode": "06037", "street": "Steepleview Dr", "district": "", "unit": "", "location": {"type": "Point", "coordinates": [-72.7696592, 41.6115154]}, "region": "Hartford", "number": "36", "city": "Berlin"}
{"state": "CT", "postcode": "06037", "street": "Berlin Tpke", "district": "", "unit": "", "location": {"type": "Point", "coordinates": [-72.7458986, 41.611627]}, "region": "Hartford", "number": "1427", "city": "Berlin"}
{"state": "CT", "postcode": "06037", "street": "Norton Rd", "district": "", "unit": "", "location": {"type": "Point", "coordinates": [-72.7859747, 41.6116224]}, "region": "Hartford", "number": "210", "city": "Berlin"}
{"state": "CT", "postcode": "06037", "street": "Cindy Ln", "district": "", "unit": "", "location": {"type": "Point", "coordinates": [-72.7527845, 41.6118114]}, "region": "Hartford", "number": "17", "city": "Berlin"}
{"state": "CT", "postcode": "06037", "street": "Pond Side Dr", "district": "", "unit": "", "location": {"type": "Point", "coordinates": [-72.7578846, 41.6118324]}, "region": "Hartford", "number": "30", "city": "Berlin"}
{"state": "CT", "postcode": "06037", "street": "Kelly Ann Ct", "district": "", "unit": "", "location": {"type": "Point", "coordinates": [-72.7658126, 41.6231943]}, "region": "Hartford", "number": "11", "city": "Berlin"}
{"state": "CT", "postcode": "06037", "street": "Streamside Ln", "district": "", "unit": "", "location": {"type": "Point", "coordinates": [-72.7682958, 41.6204589]}, "region": "Hartford", "number": "15", "city": "Berlin"}
{"state": "CT", "postcode": "06037", "street": "Worthington Rdg", "district": "", "unit": "", "location": {"type": "Point", "coordinates": [-72.7455651, 41.6230982]}, "region": "Hartford", "number": "742", "city": "Berlin"}
{"state": "CT", "postcode": "06037", "street": "Robbins Rd", "district": "", "unit": "", "location": {"type": "Point", "coordinates": [-72.7787812, 41.6230184]}, "region": "Hartford", "number": "102", "city": "Berlin"}
{"state": "CT", "postcode": "06037", "street": "Mill St", "district": "", "unit": "", "location": {"type": "Point", "coordinates": [-72.748275, 41.6256872]}, "region": "Hartford", "number": "146", "city": "Berlin"}
{"state": "CT", "postcode": "06037", "street": "Farmington Ave", "district": "", "unit": "", "location": {"type": "Point", "coordinates": [-72.7564275, 41.6283032]}, "region": "Hartford", "number": "1196", "city": "Berlin"}
{"state": "CT", "postcode": "06037", "street": "Farmington Ave", "district": "", "unit": "", "location": {"type": "Point", "coordinates": [-72.7563181, 41.6282454]}, "region": "Hartford", "number": "1198", "city": "Berlin"}
{"state": "CT", "postcode": "06037", "street": "Farmington Ave", "district": "", "unit": "", "location": {"type": "Point", "coordinates": [-72.7580851, 41.6293597]}, "region": "Hartford", "number": "1130", "city": "Berlin"}
{"state": "CT", "postcode": "06037", "street": "Farmington Ave", "district": "", "unit": "", "location": {"type": "Point", "coordinates": [-72.7549474, 41.6274811]}, "region": "Hartford", "number": "1240", "city": "Berlin"}
{"state": "CT", "postcode": "06037", "street": "Farmington Ave", "district": "", "unit": "", "location": {"type": "Point", "coordinates": [-72.7557626, 41.628323]}, "region": "Hartford", "number": "1201", "city": "Berlin"}
{"state": "CT", "postcode": "06037", "street": "Berlin Tpke", "district": "", "unit": "", "location": {"type": "Point", "coordinates": [-72.7486191, 41.609492]}, "region": "Hartford", "number": "1500", "city": "Berlin"}
{"state": "CT", "postcode": "06037", "street": "Farmington Ave", "district": "", "unit": "", "location": {"type": "Point", "coordinates": [-72.7860547, 41.6437821]}, "region": "Hartford", "number": "191", "city": "Berlin"}
{"state": "CT", "postcode": "06037", "street": "Farmington Ave", "district": "", "unit": "", "location": {"type": "Point", "coordinates": [-72.7583343, 41.6302543]}, "region": "Hartford", "number": "1107", "city": "Berlin"}
{"state": "CT", "postcode": "06037", "street": "Farmington Ave", "district": "", "unit": "", "location": {"type": "Point", "coordinates": [-72.7544597, 41.6280068]}, "region": "Hartford", "number": "1231", "city": "Berlin"}
{"state": "CT", "postcode": "06037", "street": "Deming Rd", "district": "", "unit": "", "location": {"type": "Point", "coordinates": [-72.7475021, 41.6399378]}, "region": "Hartford", "number": "71", "city": "Berlin"}
{"state": "CT", "postcode": "06037", "street": "Depot Rd", "district": "", "unit": "", "location": {"type": "Point", "coordinates": [-72.7651146, 41.6356008]}, "region": "Hartford", "number": "51", "city": "Berlin"}
{"state": "CT", "postcode": "06023", "street": "Beckley Rd", "district": "", "unit": "", "location": {"type": "Point", "coordinates": [-72.7273766, 41.6165303]}, "region": "Hartford", "number": "861", "city": "Berlin"}
{"state": "CT", "postcode": "06023", "street": "Beckley Rd", "district": "", "unit": "", "location": {"type": "Point", "coordinates": [-72.7274591, 41.6163454]}, "region": "Hartford", "number": "867", "city": "Berlin"}
{"state": "CT", "postcode": "06037", "street": "Christian Ln", "district": "", "unit": "", "location": {"type": "Point", "coordinates": [-72.7499945, 41.6358043]}, "region": "Hartford", "number": "221", "city": "Berlin"}
{"state": "CT", "postcode": "06037", "street": "Webster Square Rd", "district": "", "unit": "", "location": {"type": "Point", "coordinates": [-72.74661, 41.6279179]}, "region": "Hartford", "number": "100", "city": "Berlin"}
{"state": "CT", "postcode": "06023", "street": "Pepin Ln", "district": "", "unit": "", "location": {"type": "Point", "coordinates": [-72.7253437, 41.612281]}, "region": "Hartford", "number": "63", "city": "Berlin"}
{"state": "CT", "postcode": "06023", "street": "Pepin Ln", "district": "", "unit": "", "location": {"type": "Point", "coordinates": [-72.7255715, 41.6126762]}, "region": "Hartford", "number": "43", "city": "Berlin"}
{"state": "CT", "postcode": "06023", "street": "Pepin Ln", "district": "", "unit": "", "location": {"type": "Point", "coordinates": [-72.7252339, 41.6118151]}, "region": "Hartford", "number": "71", "city": "Berlin"}
{"state": "CT", "postcode": "06023", "street": "Pepin Ln", "district": "", "unit": "", "location": {"type": "Point", "coordinates": [-72.7256111, 41.6117857]}, "region": "Hartford", "number": "74", "city": "Berlin"}
{"state": "CT", "postcode": "06037", "street": "Old Brickyard Ln", "district": "", "unit": "", "location": {"type": "Point", "coordinates": [-72.7601249, 41.6371857]}, "region": "Hartford", "number": "196", "city": "Berlin"}
{"state": "CT", "postcode": "06037", "street": "Farmington Ave", "district": "", "unit": "", "location": {"type": "Point", "coordinates": [-72.7861889, 41.643486]}, "region": "Hartford", "number": "196", "city": "Berlin"}
{"state": "CT", "postcode": "06037", "street": "Old Brickyard Ln", "district": "", "unit": "", "location": {"type": "Point", "coordinates": [-72.7601219, 41.6374481]}, "region": "Hartford", "number": "204", "city": "Berlin"}
{"state": "CT", "postcode": "06037", "street": "Old Brickyard Ln", "district": "", "unit": "", "location": {"type": "Point", "coordinates": [-72.7601337, 41.6373714]}, "region": "Hartford", "number": "202", "city": "Berlin"}
{"state": "CT", "postcode": "06037", "street": "Main St", "district": "", "unit": "", "location": {"type": "Point", "coordinates": [-72.7718422, 41.6323471]}, "region": "Hartford", "number": "228", "city": "Berlin"}
{"state": "CT", "postcode": "06037", "street": "Lower Ln", "district": "", "unit": "", "location": {"type": "Point", "coordinates": [-72.7578839, 41.6283728]}, "region": "Hartford", "number": "34", "city": "Berlin"}
{"state": "CT", "postcode": "06023", "street": "Berlin St", "district": "", "unit": "", "location": {"type": "Point", "coordinates": [-72.715244, 41.6184658]}, "region": "Hartford", "number": "364", "city": "Berlin"}
{"state": "CT", "postcode": "06037", "street": "Lower Ln", "district": "", "unit": "", "location": {"type": "Point", "coordinates": [-72.7553276, 41.619107]}, "region": "Hartford", "number": "372", "city": "Berlin"}
{"state": "CT", "postcode": "06037", "street": "Mattabassett St", "district": "", "unit": "", "location": {"type": "Point", "coordinates": [-72.756036, 41.6332815]}, "region": "Hartford", "number": "39", "city": "Berlin"}
{"state": "CT", "postcode": "06037", "street": "New Britain Rd", "district": "", "unit": "", "location": {"type": "Point", "coordinates": [-72.7691727, 41.6364285]}, "region": "Hartford", "number": "450", "city": "Berlin"}
{"state": "CT", "postcode": "06037", "street": "Worthington Rdg", "district": "", "unit": "", "location": {"type": "Point", "coordinates": [-72.7404585, 41.6289607]}, "region": "Hartford", "number": "493", "city": "Berlin"}
{"state": "CT", "postcode": "06037", "street": "Treasure Ave", "district": "", "unit": "", "location": {"type": "Point", "coordinates": [-72.7733215, 41.6432168]}, "region": "Hartford", "number": "59", "city": "Berlin"}
{"state": "CT", "postcode": "06037", "street": "Becker Ave", "district": "", "unit": "", "location": {"type": "Point", "coordinates": [-72.7724581, 41.6434685]}, "region": "Hartford", "number": "74", "city": "Berlin"}
{"state": "CT", "postcode": "06037", "street": "Porters Pass", "district": "", "unit": "", "location": {"type": "Point", "coordinates": [-72.7607094, 41.6316976]}, "region": "Hartford", "number": "11", "city": "Berlin"}
{"state": "CT", "postcode": "06023", "street": "Pepin Ln", "district": "", "unit": "", "location": {"type": "Point", "coordinates": [-72.7252962, 41.6132187]}, "region": "Hartford", "number": "1", "city": "Berlin"}
{"state": "CT", "postcode": "06037", "street": "Edgewood Ave", "district": "", "unit": "", "location": {"type": "Point", "coordinates": [-72.7543947, 41.649563]}, "region": "Hartford", "number": "159", "city": "Berlin"}
{"state": "CT", "postcode": "06037", "street": "Norton Ln", "district": "", "unit": "", "location": {"type": "Point", "coordinates": [-72.7703978, 41.5846676]}, "region": "Hartford", "number": "500", "city": "Berlin"}
{"state": "CT", "postcode": "06037", "street": "Raspberry Hl", "district": "", "unit": "", "location": {"type": "Point", "coordinates": [-72.7459805, 41.6041066]}, "region": "Hartford", "number": "68", "city": "Berlin"}
{"state": "CT", "postcode": "06037", "street": "Thompson Rd", "district": "", "unit": "", "location": {"type": "Point", "coordinates": [-72.7381782, 41.6040051]}, "region": "Hartford", "number": "27", "city": "Berlin"}
{"state": "CT", "postcode": "06037", "street": "Wilks Pond Rd", "district": "", "unit": "", "location": {"type": "Point", "coordinates": [-72.7440605, 41.6042214]}, "region": "Hartford", "number": "141", "city": "Berlin"}
{"state": "CT", "postcode": "06037", "street": "Raspberry Hl", "district": "", "unit": "", "location": {"type": "Point", "coordinates": [-72.7463045, 41.6040386]}, "region": "Hartford", "number": "74", "city": "Berlin"}
{"state": "CT", "postcode": "06037", "street": "Elton Rd", "district": "", "unit": "", "location": {"type": "Point", "coordinates": [-72.7722808, 41.6040372]}, "region": "Hartford", "number": "93", "city": "Berlin"}
{"state": "CT", "postcode": "06037", "street": "Toll Gate Rd", "district": "", "unit": "", "location": {"type": "Point", "coordinates": [-72.7599655, 41.6041386]}, "region": "Hartford", "number": "11", "city": "Berlin"}
{"state": "CT", "postcode": "06037", "street": "Kensington Rd", "district": "", "unit": "", "location": {"type": "Point", "coordinates": [-72.7784821, 41.6038826]}, "region": "Hartford", "number": "1296", "city": "Berlin"}
{"state": "CT", "postcode": "06037", "street": "Raspberry Hl", "district": "", "unit": "", "location": {"type": "Point", "coordinates": [-72.7453958, 41.6041983]}, "region": "Hartford", "number": "48", "city": "Berlin"}
{"state": "CT", "postcode": "06023", "street": "Division St", "district": "", "unit": "", "location": {"type": "Point", "coordinates": [-72.7180601, 41.604221]}, "region": "Hartford", "number": "53", "city": "Berlin"}
{"state": "CT", "postcode": "06037", "street": "Old Farms Pl", "district": "", "unit": "", "location": {"type": "Point", "coordinates": [-72.7708655, 41.6043061]}, "region": "Hartford", "number": "59", "city": "Berlin"}
{"state": "CT", "postcode": "06037", "street": "Warner Rd", "district": "", "unit": "", "location": {"type": "Point", "coordinates": [-72.7917241, 41.626675]}, "region": "Hartford", "number": "118", "city": "Berlin"}
{"state": "CT", "postcode": "06037", "street": "Robindale Dr", "district": "", "unit": "", "location": {"type": "Point", "coordinates": [-72.7859739, 41.6264781]}, "region": "Hartford", "number": "154", "city": "Berlin"}
{"state": "CT", "postcode": "06037", "street": "Sugar Maple Ln", "district": "", "unit": "", "location": {"type": "Point", "coordinates": [-72.7693304, 41.6266284]}, "region": "Hartford", "number": "53", "city": "Berlin"}
{"state": "CT", "postcode": "06037", "street": "Ronal Dr", "district": "", "unit": "", "location": {"type": "Point", "coordinates": [-72.7388699, 41.6266525]}, "region": "Hartford", "number": "66", "city": "Berlin"}
{"state": "CT", "postcode": "06037", "street": "Four Rod Rd", "district": "", "unit": "", "location": {"type": "Point", "coordinates": [-72.7676758, 41.6267272]}, "region": "Hartford", "number": "160", "city": "Berlin"}
{"state": "CT", "postcode": "06037", "street": "Percival Ave", "district": "", "unit": "", "location": {"type": "Point", "coordinates": [-72.7812195, 41.6267528]}, "region": "Hartford", "number": "147", "city": "Berlin"}
{"state": "CT", "postcode": "06037", "street": "Robindale Dr", "district": "", "unit": "", "location": {"type": "Point", "coordinates": [-72.7849181, 41.6266921]}, "region": "Hartford", "number": "131", "city": "Berlin"}
{"state": "CT", "postcode": "06037", "street": "Sugar Maple Ln", "district": "", "unit": "", "location": {"type": "Point", "coordinates": [-72.7689817, 41.6266608]}, "region": "Hartford", "number": "43", "city": "Berlin"}
{"state": "CT", "postcode": "06037", "street": "Sugar Maple Ln", "district": "", "unit": "", "location": {"type": "Point", "coordinates": [-72.769736, 41.6266151]}, "region": "Hartford", "number": "63", "city": "Berlin"}
